ONEWEB-0267             
1 48985U 21060U   21343.86698212  .00000003  00000+0 -25870-4 0  9997
2 48985  87.9130 197.0909 0002251  79.2924 280.8461 13.16593629 22437
ONEWEB-0268             
1 48986U 21060V   21343.91667824  .00028441  00000+0  74182-1 0  9991
2 48986  87.9102 197.0487 0002487  92.5890 279.1548 13.16548593  3299
ONEWEB-0269             
1 48987U 21060W   21343.89230310  .00000154  00000+0  36886-3 0  9997
2 48987  87.9165 197.1006 0001655  87.0455 273.0865 13.16595684 22478
ONEWEB-0270             
1 48988U 21060X   21343.91667824  .00029510  00000+0  76936-1 0  9990
2 48988  87.9145 197.0550 0001366  79.6078 319.6345 13.16572961  3288
ONEWEB-0271             
1 48989U 21060Y   21343.89691279  .00000105  00000+0  24056-3 0  9996
2 48989  87.9137 197.1032 0002099  71.0440 289.0919 13.16595112 22516
ONEWEB-0272             
1 48990U 21060Z   21343.84394685 -.00000027  00000+0 -10431-3 0  9991
2 48990  87.9156 197.0842 0002011  78.1770 281.9587 13.16594679 22457
ONEWEB-0273             
1 48991U 21060AA  21343.86468640 -.00000086  00000+0 -25796-3 0  9992
2 48991  87.9140 197.0709 0001749  70.9492 289.1828 13.16592076 22436
ONEWEB-0274             
1 48992U 21060AB  21343.89000583  .00000165  00000+0  39842-3 0  9997
2 48992  87.9178 197.1195 0001976  71.1126 289.0219 13.16596087 22470
ONEWEB-0275             
1 48993U 21060AC  21343.87847674  .00000039  00000+0  69744-4 0  9991
2 48993  87.9149 197.0886 0001993  76.4345 283.7007 13.16590529 22409
ONEWEB-0276             
1 48994U 21060AD  21343.91667824  .00028908  00000+0  75367-1 0  9994
2 48994  87.9136 197.1384 0001946  68.1743 309.1682 13.16575370  3282
ONEWEB-0277             
1 48995U 21060AE  21343.92686391  .00000012  00000+0 -20783-5 0  9999
2 48995  87.9146 197.1369 0002286  70.7440 289.3938 13.16595650 22410
ONEWEB-0278             
1 48996U 21060AF  21343.83933819 -.00000012  00000+0 -64852-4 0  9995
2 48996  87.9199 196.9727 0001720  73.6655 286.4665 13.16592553 22533
ONEWEB-0279             
1 48997U 21060AG  21343.84856222 -.00000030  00000+0 -11079-3 0  9991
2 48997  87.9153 197.0692 0001353  78.8416 281.2867 13.16593441 22467
ONEWEB-0280             
1 48998U 21060AH  21343.86237752 -.00000079  00000+0 -24122-3 0  9991
2 48998  87.9139 197.0993 0002620  70.4736 289.6678 13.16595190 22406
ONEWEB-0281             
1 48999U 21060AJ  21343.86927931 -.00000051  00000+0 -16707-3 0  9997
2 48999  87.9147 197.0546 0001794  99.4522 260.6811 13.16592086 22471
ONEWEB-0282             
1 49000U 21060AK  21343.89920419  .00000016  00000+0  88618-5 0  9999
2 49000  87.9146 197.1197 0001901  64.7759 295.3569 13.16592793 22452
ONEWEB-0283             
1 49001U 21060AL  21343.88769294  .00000118  00000+0  27609-3 0  9995
2 49001  87.9141 197.1277 0001985  75.7890 284.3462 13.16592369 22467
ONEWEB-0284             
1 49002U 21060AM  21343.88079921  .00000058  00000+0  11714-3 0  9990
2 49002  87.9178 197.1011 0001764  66.4867 293.6449 13.16594418 22443
ONEWEB-0285             
1 49075U 21075A   21343.91667824  .00045853  00000+0  52254-2 0  9990
2 49075  87.5318 330.8051 0014645 265.0785 264.2626 14.85863367  3543
ONEWEB-0286             
1 49076U 21075B   21343.91667824  .00036174  00000+0  42579-2 0  9996
2 49076  87.1991 327.4832 0017678 269.1443  95.6159 14.84546826  3567
ONEWEB-0287             
1 49077U 21075C   21343.91667824  .00010822  00000+0  22756-1 0  9993
2 49077  87.9598 334.0056 0007300 309.6237  19.5019 13.31062773  3355
ONEWEB-0288             
1 49078U 21075D   21343.91667824  .00044771  00000+0  51049-2 0  9992
2 49078  87.5356 330.8059 0015678 273.2621  71.0553 14.85834657  3535
ONEWEB-0289             
1 49079U 21075E   21343.88532542 -.00553236  00000+0 -30552+0 0  9993
2 49079  88.0178 331.7519 0017177 280.4238  79.5012 14.13935755 16635
ONEWEB-0290             
1 49080U 21075F   21343.91667824  .00045691  00000+0  96258-1 0  9997
2 49080  87.9607 334.0113 0003976 307.1420 358.0218 13.30750508  3357
ONEWEB-0291             
1 49081U 21075G   21343.91667824  .00036452  00000+0  76331-1 0  9993
2 49081  87.9599 334.0136 0001118  60.8611 258.5884 13.31216551  3353
ONEWEB-0293             
1 49082U 21075H   21343.91667824  .00065102  00000+0  13582+0 0  9995
2 49082  87.9570 333.9836 0009710 291.7533  83.0730 13.31241750  3374
ONEWEB-0294             
1 49083U 21075J   21343.91667824  .00040195  00000+0  47216-2 0  9995
2 49083  87.1997 327.4793 0019424 261.8088 190.3012 14.84586131  3566
ONEWEB-0295             
1 49084U 21075K   21343.91667824  .00043520  00000+0  91649-1 0  9999
2 49084  87.9627 333.9641 0009925 306.0442 342.9652 13.30775465  3363
ONEWEB-0296             
1 49085U 21075L   21343.91667824  .00037770  00000+0  44477-2 0  9998
2 49085  87.1988 327.4744 0019412 268.3845  52.4588 14.84497322  3530
ONEWEB-0297             
1 49086U 21075M   21343.91667824  .00113653  00000+0  12823-1 0  9993
2 49086  87.5311 330.8070 0014882 260.2701 259.7331 14.85884127  3546
ONEWEB-0298             
1 49087U 21075N   21343.91667824  .00016819  00000+0  35456-1 0  9997
2 49087  87.9680 333.9380 0009139 294.8192 225.1034 13.30876744  3366
ONEWEB-0299             
1 49088U 21075P   21343.84353746 -.00374370  00000+0 -74005+0 0  9997
2 49088  87.9332 333.9226 0017377 301.4713  58.4731 13.37607268 16250
ONEWEB-0300             
1 49089U 21075Q   21343.91667824 -.00048251  00000+0 -55668-2 0  9994
2 49089  87.5346 330.7836 0016425 270.8961 107.1726 14.85936028  3548
ONEWEB-0301             
1 49090U 21075R   21343.91667824  .00041052  00000+0  48287-2 0  9995
2 49090  87.1951 327.4309 0017258 266.3355 262.6188 14.84554947  3531
ONEWEB-0302             
1 49091U 21075S   21343.91667824  .00039976  00000+0  47012-2 0  9993
2 49091  87.1933 327.3999 0018421 260.4163 329.4651 14.84554583  3534
ONEWEB-0304             
1 49092U 21075T   21343.91667824  .00037665  00000+0  79707-1 0  9992
2 49092  87.9582 333.9755 0000244  31.1099 342.9272 13.30512023  3353
ONEWEB-0305             
1 49093U 21075U   21343.91667824  .00039996  00000+0  84003-1 0  9997
2 49093  87.9639 334.0014 0000635  27.7725 142.5871 13.30994617  3350
ONEWEB-0308             
1 49094U 21075V   21343.91667824  .00039484  00000+0  46435-2 0  9998
2 49094  87.1998 327.4861 0017475 269.3303 160.2204 14.84568092  3545
ONEWEB-0309             
1 49095U 21075W   21343.91667824  .00036393  00000+0  76602-1 0  9993
2 49095  87.9642 333.9959 0001290  83.3540 235.4515 13.30875323  3352
ONEWEB-0310             
1 49096U 21075X   21343.91667824  .00045600  00000+0  51984-2 0  9992
2 49096  87.5383 330.8642 0014313 271.1905 334.5198 14.85853138  3537
ONEWEB-0311             
1 49097U 21075Y   21343.91667824  .00108891  00000+0  22690+0 0  9994
2 49097  87.9612 334.0159 0000799 114.8263  81.5207 13.31017959  3363
ONEWEB-0312             
1 49098U 21075Z   21343.91667824  .00016523  00000+0  34884-1 0  9995
2 49098  87.9618 333.9321 0012567 308.3134 270.9459 13.30766359  3369
ONEWEB-0313             
1 49099U 21075AA  21343.91667824  .00022065  00000+0  46568-1 0  9996
2 49099  87.9651 334.0105 0005119 304.7040 288.3857 13.30786727  3355
ONEWEB-0314             
1 49100U 21075AB  21343.91667824  .00038098  00000+0  80327-1 0  9993
2 49100  87.9609 334.0016 0001313  75.2601 142.3316 13.30751594  3350
ONEWEB-0315             
1 49101U 21075AC  21343.91667824  .00045112  00000+0  51429-2 0  9991
2 49101  87.5341 330.7947 0015637 269.5639   0.4904 14.85840710  3536
ONEWEB-0316             
1 49102U 21075AD  21343.91667824  .00039897  00000+0  45511-2 0  9990
2 49102  87.1988 327.4230 0015774 251.6565 346.8062 14.85840975  3535
ONEWEB-0317             
1 49103U 21075AE  21343.91667824  .00045673  00000+0  52040-2 0  9995
2 49103  87.5313 330.6502 0016314 268.3536 210.1010 14.85852651  3545
ONEWEB-0318             
1 49104U 21075AF  21343.91667824  .00038828  00000+0  44279-2 0  9995
2 49104  87.1942 327.3675 0016713 248.5183  24.8947 14.85847269  3554
ONEWEB-0319             
1 49105U 21075AG  21343.90821983 -.00092142  00000+0 -19500+0 0  9990
2 49105  87.9513 333.9668 0009674 299.6517  60.3659 13.31489072 16270
ONEWEB-0323             
1 49106U 21075AH  21343.91667824  .00038997  00000+0  45837-2 0  9995
2 49106  87.1959 327.4370 0018970 257.5562  12.7493 14.84573590  3537
ONEWEB-0329             
1 49107U 21075AJ  21343.90353008 -.00364635  00000+0 -76275+0 0  9991
2 49107  87.9546 333.9905 0019938 300.9206  58.9974 13.33809034 16243
ONEWEB-0330             
1 49108U 21075AK  21343.91667824  .00038344  00000+0  80490-1 0  9996
2 49108  87.9593 333.9900 0019225 305.5177 263.4172 13.30973586  3361
ONEWEB-0292             
1 49186U 21083A   21343.81732151  .00000442  00000+0  46044-4 0  9994
2 49186  87.1975 297.7613 0020589   4.2585 355.8812 14.87123573 12905
ONEWEB-0303             
1 49187U 21083B   21343.88746058 -.00255245  00000+0 -52564+0 0  9997
2 49187  87.9511 303.5186 0018271  29.4272 330.7894 13.34447741 12468
ONEWEB-0306             
1 49188U 21083C   21343.89699068 -.00385938  00000+0 -73394+0 0  9994
2 49188  87.9411 303.4964 0025557  20.9057 339.3127 13.40142588 12500
ONEWEB-0307             
1 49189U 21083D   21343.91667824 -.00023810  00000+0 -26573-2 0  9991
2 49189  87.2008 297.7572 0017842 356.8563  39.8178 14.87156667  3544
ONEWEB-0320             
1 49190U 21083E   21343.88175712 -.00383546  00000+0 -78996+0 0  9997
2 49190  87.9504 303.5186 0019358  23.5336 336.6687 13.34955119 12465
ONEWEB-0321             
1 49191U 21083F   21343.84753906  .00000435  00000+0  42477-4 0  9992
2 49191  87.2046 297.7154 0020862   3.9125 356.2261 14.89651491 12923
ONEWEB-0322             
1 49192U 21083G   21343.82230593  .00000497  00000+0  52137-4 0  9995
2 49192  87.1987 297.7693 0019520   6.5808 353.5670 14.87096098 12907
